GLOBALSTAR M063 [+]     
1 26081U 00008A   24080.72380535 -.00000074  00000+0  12748-3 0  9998
2 26081  51.9935 225.8121 0005221 157.3444 307.1111 11.86152190103765
GLOBALSTAR M062 [-]     
1 26082U 00008B   24080.92725021  .00000039  00000+0  98230-3 0  9994
2 26082  51.9877 348.6454 0006496 222.3923 217.9036 12.43431709440234
GLOBALSTAR M060 [-]     
1 26083U 00008C   24080.78549369 -.00000011  00000+0  79901-3 0  9993
2 26083  52.0003 244.9252 0002424 285.5924 179.9849 12.17628188 97137
GLOBALSTAR M064 [-]     
1 26084U 00008D   24080.92788868 -.00000049  00000+0  48432-3 0  9995
2 26084  52.0057 329.4507 0000741 277.1021  82.9727 11.88516270113204
GLOBALSTAR M065 [+]     
1 31571U 07020A   24080.97814793 -.00000102  00000+0  94596-5 0  9999
2 31571  51.9885 165.6394 0010312  27.2910 143.4467 12.61964492776189
GLOBALSTAR M069 [+]     
1 31573U 07020C   24080.42432150 -.00000069  00000+0  19561-3 0  9993
2 31573  51.9939 123.2669 0000653 175.8510 286.7369 12.62267629777248
GLOBALSTAR M072 [+]     
1 31574U 07020D   24080.57327297 -.00000094  00000+0  56761-4 0  9997
2 31574  52.0070 218.6682 0001125 113.4744 326.6906 12.62268790775691
GLOBALSTAR M071 [P]     
1 31576U 07020F   24080.53977593 -.00000064  00000+0  22352-3 0  9990
2 31576  52.0053 128.0102 0001159 190.9071 316.9006 12.62269694438441
